{"fetched_at":"2026-07-17T17:38:01.871Z","source":"https://celestrak.org/NORAD/elements/gp.php?GROUP=stations&FORMAT=JSON","constellation":"iss","records":[{"OBJECT_NAME":"ISS (ZARYA)","OBJECT_ID":"1998-067A","EPOCH":"2026-07-17T06:00:20.087136","CLASSIFICATION_TYPE":"U","MEAN_MOTION":15.49030578,"ECCENTRICITY":0.00067955,"INCLINATION":51.6315,"RA_OF_ASC_NODE":151.3159,"ARG_OF_PERICENTER":305.6667,"MEAN_ANOMALY":54.3688,"EPHEMERIS_TYPE":0,"NORAD_CAT_ID":25544,"ELEMENT_SET_NO":999,"REV_AT_EPOCH":57641,"BSTAR":0.000073577935,"MEAN_MOTION_DOT":0.0000361,"MEAN_MOTION_DDOT":0}]}
