ISS (ZARYA)             
1 25544U 98067A   26198.25023249  .00003610  00000+0  73578-4 0  9996
2 25544  51.6315 151.3159 0006795 305.6667  54.3688 15.49030578576417
